{"fetched_at":"2026-07-21T17:53:16.825Z","source":"https://celestrak.org/NORAD/elements/gp.php?NAME=ASTROCAST&FORMAT=JSON","constellation":"astrocast","records":[{"OBJECT_NAME":"ASTROCAST 0.1","OBJECT_ID":"2018-099AS","EPOCH":"2026-07-21T06:26:03.245568","CLASSIFICATION_TYPE":"U","MEAN_MOTION":15.51753145,"ECCENTRICITY":0.0005297,"INCLINATION":97.4362,"RA_OF_ASC_NODE":281.8841,"ARG_OF_PERICENTER":112.2277,"MEAN_ANOMALY":247.9537,"EPHEMERIS_TYPE":0,"NORAD_CAT_ID":43798,"ELEMENT_SET_NO":999,"REV_AT_EPOCH":41971,"BSTAR":0.00052968672,"MEAN_MOTION_DOT":0.00031583,"MEAN_MOTION_DDOT":0},{"OBJECT_NAME":"ASTROCAST-0402","OBJECT_ID":"2023-001DE","EPOCH":"2026-07-20T19:34:52.818240","CLASSIFICATION_TYPE":"U","MEAN_MOTION":15.29100455,"ECCENTRICITY":0.00066482,"INCLINATION":97.5575,"RA_OF_ASC_NODE":295.5301,"ARG_OF_PERICENTER":119.3554,"MEAN_ANOMALY":240.8351,"EPHEMERIS_TYPE":0,"NORAD_CAT_ID":55109,"ELEMENT_SET_NO":999,"REV_AT_EPOCH":14967,"BSTAR":0.00037221582,"MEAN_MOTION_DOT":0.00010447,"MEAN_MOTION_DDOT":0},{"OBJECT_NAME":"ASTROCAST-0401","OBJECT_ID":"2023-001DF","EPOCH":"2026-07-21T05:25:08.583456","CLASSIFICATION_TYPE":"U","MEAN_MOTION":15.28682012,"ECCENTRICITY":0.00093993,"INCLINATION":97.5557,"RA_OF_ASC_NODE":295.7468,"ARG_OF_PERICENTER":90.3099,"MEAN_ANOMALY":269.9218,"EPHEMERIS_TYPE":0,"NORAD_CAT_ID":55110,"ELEMENT_SET_NO":999,"REV_AT_EPOCH":19640,"BSTAR":0.00050889384,"MEAN_MOTION_DOT":0.00014146,"MEAN_MOTION_DDOT":0},{"OBJECT_NAME":"ASTROCAST-0403","OBJECT_ID":"2023-001DG","EPOCH":"2026-07-21T03:53:26.004192","CLASSIFICATION_TYPE":"U","MEAN_MOTION":15.32531135,"ECCENTRICITY":0.00052412,"INCLINATION":97.5613,"RA_OF_ASC_NODE":297.0422,"ARG_OF_PERICENTER":191.5392,"MEAN_ANOMALY":168.573,"EPHEMERIS_TYPE":0,"NORAD_CAT_ID":55111,"ELEMENT_SET_NO":999,"REV_AT_EPOCH":14976,"BSTAR":0.00061610099,"MEAN_MOTION_DOT":0.00019307,"MEAN_MOTION_DDOT":0},{"OBJECT_NAME":"ASTROCAST-0404","OBJECT_ID":"2023-001DH","EPOCH":"2026-07-20T18:50:08.443680","CLASSIFICATION_TYPE":"U","MEAN_MOTION":15.28874248,"ECCENTRICITY":0.0005532,"INCLINATION":97.5662,"RA_OF_ASC_NODE":296.4362,"ARG_OF_PERICENTER":219.5046,"MEAN_ANOMALY":140.5791,"EPHEMERIS_TYPE":0,"NORAD_CAT_ID":55112,"ELEMENT_SET_NO":999,"REV_AT_EPOCH":14966,"BSTAR":0.00017062659,"MEAN_MOTION_DOT":0.00004709,"MEAN_MOTION_DDOT":0}]}
